NORAD_CAT_ID,OBJECT_NAME,OBJECT_TYPE,EPOCH,MEAN_MOTION,ECCENTRICITY,INCLINATION,RA_OF_ASC_NODE,ARG_OF_PERICENTER,MEAN_ANOMALY,BSTAR,MEAN_MOTION_DOT,MEAN_MOTION_DDOT,TLE_LINE0,TLE_LINE1,TLE_LINE2,SEMIMAJOR_AXIS,PERIOD,APOGEE,PERIGEE,DECAYED
53847.0,STARLINK-4777,PAYLOAD,2024-06-26 08:45:24,15.08838509,0.0001339,53.2159,203.2897,101.9081,258.2062,5.2004e-05,5.4e-06,0.0,0 STARLINK-4777,1 53847U 22114AF  24178.36486698  .00000540  00000-0  52004-4 0  9993,2 53847  53.2159 203.2897 0001339 101.9081 258.2062 15.08838509 98639,6917.885,95.438,540.676,538.824,0.0
53847.0,STARLINK-4777,PAYLOAD,2024-06-27 10:11:35,15.08834632,0.0001208,53.2149,198.5302,88.4961,271.6169,7.7653e-05,9.48e-06,0.0,0 STARLINK-4777,1 53847U 22114AF  24179.42471252  .00000948  00000-0  77653-4 0  9990,2 53847  53.2149 198.5302 0001208  88.4961 271.6169 15.08834632 98793,6917.897,95.438,540.597,538.926,0.0
53847.0,STARLINK-4777,PAYLOAD,2024-06-27 18:08:30,15.08835759,0.0001206,53.2148,197.0433,91.0051,269.108,7.6011e-05,9.22e-06,0.0,0 STARLINK-4777,1 53847U 22114AF  24179.75591292  .00000922  00000-0  76011-4 0  9992,2 53847  53.2148 197.0433 0001206  91.0051 269.1080 15.08835759 99380,6917.893,95.438,540.593,538.924,0.0
53847.0,STARLINK-4777,PAYLOAD,2024-06-28 08:26:58,15.08841046,0.0001207,53.2146,194.3669,91.9987,268.1143,7.3139e-05,8.76e-06,0.0,0 STARLINK-4777,1 53847U 22114AF  24180.35207099  .00000876  00000-0  73139-4 0  9995,2 53847  53.2146 194.3669 0001207  91.9987 268.1143 15.08841046 99472,6917.877,95.437,540.577,538.907,0.0
53847.0,STARLINK-4777,PAYLOAD,2024-06-29 05:06:59,15.08842469,0.0001183,53.2146,190.5009,90.9814,269.1314,0.00012235,1.66e-05,0.0,0 STARLINK-4777,1 53847U 22114AF  24181.21318952  .00001660  00000-0  12235-3 0  9993,2 53847  53.2146 190.5009 0001183  90.9814 269.1314 15.08842469 99065,6917.873,95.437,540.556,538.919,0.0
53847.0,STARLINK-4777,PAYLOAD,2024-06-29 09:53:09,15.08842332,0.0001183,53.2146,189.6088,90.9074,269.2053,0.00011663,1.569e-05,0.0,0 STARLINK-4777,1 53847U 22114AF  24181.41190990  .00001569  00000-0  11663-3 0  9997,2 53847  53.2146 189.6088 0001183  90.9074 269.2053 15.08842332 99632,6917.873,95.437,540.557,538.92,0.0
53847.0,STARLINK-4777,PAYLOAD,2024-06-29 17:50:04,15.08844637,0.0001172,53.2145,188.1217,87.6429,272.4697,0.00011899,1.607e-05,0.0,0 STARLINK-4777,1 53847U 22114AF  24181.74310834  .00001607  00000-0  11899-3 0  9998,2 53847  53.2145 188.1217 0001172  87.6429 272.4697 15.08844637 99689,6917.866,95.437,540.542,538.92,0.0
53847.0,STARLINK-4777,PAYLOAD,2024-06-30 04:57:46,15.08840523,0.0001206,53.2145,186.04,90.4786,269.6344,7.0868e-05,8.4e-06,0.0,0 STARLINK-4777,1 53847U 22114AF  24182.20679174  .00000840  00000-0  70868-4 0  9995,2 53847  53.2145 186.0400 0001206  90.4786 269.6344 15.08840523 99212,6917.879,95.438,540.578,538.909,0.0
53847.0,STARLINK-4777,PAYLOAD,2024-06-30 06:33:09,15.08840379,0.0001243,53.2148,185.7428,89.1083,271.0051,6.444e-05,7.38e-06,0.0,0 STARLINK-4777,1 53847U 22114AF  24182.27303202  .00000738  00000-0  64440-4 0  9993,2 53847  53.2148 185.7428 0001243  89.1083 271.0051 15.08840379 99768,6917.879,95.438,540.604,538.884,0.0
53847.0,STARLINK-4777,PAYLOAD,2024-06-30 17:40:51,15.08844346,0.0001277,53.2152,183.6615,87.6555,272.4583,6.7071e-05,7.8e-06,0.0,0 STARLINK-4777,1 53847U 22114AF  24182.73670852  .00000780  00000-0  67071-4 0  9992,2 53847  53.2152 183.6615 0001277  87.6555 272.4583 15.08844346 99833,6917.867,95.437,540.616,538.849,0.0
53847.0,STARLINK-4777,PAYLOAD,2024-07-01 06:23:56,15.08841094,0.0001322,53.2153,181.2825,89.9294,270.185,5.4366e-05,5.77e-06,0.0,0 STARLINK-4777,1 53847U 22114AF  24183.26663029  .00000577  00000-0  54366-4 0  9996,2 53847  53.2153 181.2825 0001322  89.9294 270.1850 15.08841094 99375,6917.877,95.437,540.657,538.828,0.0
53847.0,STARLINK-4777,PAYLOAD,2024-07-01 17:31:38,15.08843853,0.0001331,53.2155,179.2011,89.1947,270.9198,6.4895e-05,7.45e-06,0.0,0 STARLINK-4777,1 53847U 22114AF  24183.73030742  .00000745  00000-0  64895-4 0  9993,2 53847  53.2155 179.2011 0001331  89.1947 270.9198 15.08843853 99983,6917.869,95.437,540.654,538.813,0.0
53847.0,STARLINK-4777,PAYLOAD,2024-07-02 06:14:43,15.08839295,0.0001387,53.216,176.8223,91.6326,268.4825,3.7173e-05,3.04e-06,0.0,0 STARLINK-4777,1 53847U 22114AF  24184.26023107  .00000304  00000-0  37173-4 0  9999,2 53847  53.2160 176.8223 0001387  91.6326 268.4825 15.08839295100063,6917.883,95.438,540.707,538.788,0.0
53847.0,STARLINK-4777,PAYLOAD,2024-07-03 04:30:08,15.08836102,0.0001368,53.2161,172.6594,91.5903,268.5246,1.676e-05,-2.1e-07,0.0,0 STARLINK-4777,1 53847U 22114AF  24185.18759420 -.00000021  00000-0  16760-4 0  9991,2 53847  53.2161 172.6594 0001368  91.5903 268.5246 15.08836102 99663,6917.892,95.438,540.704,538.811,0.0
53847.0,STARLINK-4777,PAYLOAD,2024-07-03 15:37:49,15.08839125,0.0001371,53.2162,170.5782,90.9484,269.1665,2.8918e-05,1.72e-06,0.0,0 STARLINK-4777,1 53847U 22114AF  24185.65127228  .00000172  00000-0  28918-4 0  9992,2 53847  53.2162 170.5782 0001371  90.9484 269.1665 15.08839125100271,6917.883,95.438,540.697,538.8,0.0
53847.0,STARLINK-4777,PAYLOAD,2024-07-04 05:56:18,15.08836471,0.0001351,53.2158,167.9024,90.66,269.4547,3.605e-05,2.86e-06,0.0,0 STARLINK-4777,1 53847U 22114AF  24186.24743482  .00000286  00000-0  36050-4 0  9996,2 53847  53.2158 167.9024 0001351  90.6600 269.4547 15.08836471 99821,6917.891,95.438,540.691,538.822,0.0
53847.0,STARLINK-4777,PAYLOAD,2024-07-05 05:47:05,15.088359,0.0001449,53.2162,163.443,99.3199,260.7957,4.628e-05,4.49e-06,0.0,0 STARLINK-4777,1 53847U 22114AF  24187.24103682  .00000449  00000-0  46280-4 0  9996,2 53847  53.2162 163.4430 0001449  99.3199 260.7957 15.08835900100519,6917.893,95.438,540.76,538.756,0.0
53847.0,STARLINK-4777,PAYLOAD,2024-07-05 15:19:24,15.08840325,0.0001441,53.2166,161.6584,92.4656,267.6501,6.0583e-05,6.76e-06,0.0,0 STARLINK-4777,1 53847U 22114AF  24187.63847430  .00000676  00000-0  60583-4 0  9999,2 53847  53.2166 161.6584 0001441  92.4656 267.6501 15.08840325100032,6917.879,95.438,540.741,538.748,0.0
53847.0,STARLINK-4777,PAYLOAD,2024-07-06 05:37:52,15.08834523,0.0001462,53.2166,158.9821,91.5384,268.5776,2.0394e-05,3.7e-07,0.0,0 STARLINK-4777,1 53847U 22114AF  24188.23464091  .00000037  00000-0  20394-4 0  9991,2 53847  53.2166 158.9821 0001462  91.5384 268.5776 15.08834523100123,6917.897,95.438,540.774,538.751,0.0
53847.0,STARLINK-4777,PAYLOAD,2024-07-06 07:13:16,15.08835331,0.0001414,53.2161,158.6841,88.6309,271.4845,2.5041e-05,1.11e-06,0.0,0 STARLINK-4777,1 53847U 22114AF  24188.30088035  .00000111  00000-0  25041-4 0  9996,2 53847  53.2161 158.6841 0001414  88.6309 271.4845 15.08835331100676,6917.895,95.438,540.738,538.781,0.0
53847.0,STARLINK-4777,PAYLOAD,2024-07-06 15:10:11,15.08842388,0.0001438,53.2165,157.1972,85.2603,274.8553,7.3138e-05,8.76e-06,0.0,0 STARLINK-4777,1 53847U 22114AF  24188.63207397  .00000876  00000-0  73138-4 0  9994,2 53847  53.2165 157.1972 0001438  85.2603 274.8553 15.08842388100184,6917.873,95.437,540.733,538.743,0.0
53847.0,STARLINK-4777,PAYLOAD,2024-07-07 05:28:39,15.08838925,0.0001333,53.2159,154.5202,89.4902,270.6243,2.4445e-05,1.01e-06,0.0,0 STARLINK-4777,1 53847U 22114AF  24189.22823864  .00000101  00000-0  24445-4 0  9991,2 53847  53.2159 154.5202 0001333  89.4902 270.6243 15.08838925100278,6917.884,95.438,540.671,538.827,0.0
53847.0,STARLINK-4777,PAYLOAD,2024-07-07 07:04:02,15.0884272,0.000136,53.2161,154.2238,88.6675,271.4473,-8.4756e-06,-4.23e-06,0.0,0 STARLINK-4777,1 53847U 22114AF  24189.29447771 -.00000423  00000-0 -84756-5 0  9998,2 53847  53.2161 154.2238 0001360  88.6675 271.4473 15.08842720100828,6917.872,95.437,540.678,538.796,0.0
53847.0,STARLINK-4777,PAYLOAD,2024-07-08 06:54:49,15.08845209,0.000136,53.2161,149.7613,92.2333,267.8815,6.6432e-05,7.7e-06,0.0,0 STARLINK-4777,1 53847U 22114AF  24190.28807327  .00000770  00000-0  66432-4 0  9999,2 53847  53.2161 149.7613 0001360  92.2333 267.8815 15.08845209100437,6917.864,95.437,540.67,538.789,0.0
53847.0,STARLINK-4777,PAYLOAD,2024-07-08 14:51:44,15.08846863,0.000138,53.2162,148.2755,89.7325,270.3825,9.238e-05,1.183e-05,0.0,0 STARLINK-4777,1 53847U 22114AF  24190.61927053  .00001183  00000-0  92380-4 0  9995,2 53847  53.2162 148.2755 0001380  89.7325 270.3825 15.08846863101026,6917.859,95.437,540.679,538.77,0.0
53847.0,STARLINK-4777,PAYLOAD,2024-07-09 03:34:50,15.08837151,0.0001583,53.2183,145.8948,101.5288,258.5882,1.5966e-05,-3.4e-07,0.0,0 STARLINK-4777,1 53847U 22114AF  24191.14919867 -.00000034  00000-0  15966-4 0  9998,2 53847  53.2183 145.8948 0001583 101.5288 258.5882 15.08837151100561,6917.889,95.438,540.849,538.659,0.0
53847.0,STARLINK-4777,PAYLOAD,2024-07-09 06:45:37,15.08823716,0.0001754,53.2185,145.2998,110.3656,249.7525,0.00019834,2.869e-05,0.0,0 STARLINK-4777,1 53847U 22114AF  24191.28168121  .00002869  00000-0  19834-3 0  9996,2 53847  53.2185 145.2998 0001754 110.3656 249.7525 15.08823716101120,6917.93,95.439,541.009,538.582,0.0
53847.0,STARLINK-4777,PAYLOAD,2024-07-10 03:25:38,15.08836114,0.0001346,53.2163,141.4363,92.0375,268.0771,-5.7752e-05,-1.207e-05,0.0,0 STARLINK-4777,1 53847U 22114AF  24192.14280375 -.00001207  00000-0 -57752-4 0  9997,2 53847  53.2163 141.4363 0001346  92.0375 268.0771 15.08836114101258,6917.892,95.438,540.688,538.826,0.0
53847.0,STARLINK-4777,PAYLOAD,2024-07-10 20:54:52,15.08816384,0.000135,53.216,138.165,98.7032,261.4113,0.00028335,4.222e-05,0.0,0 STARLINK-4777,1 53847U 22114AF  24192.87144591  .00004222  00000-0  28335-3 0  9998,2 53847  53.2160 138.1650 0001350  98.7032 261.4113 15.08816384100821,6917.953,95.439,540.751,538.884,0.0
53847.0,STARLINK-4777,PAYLOAD,2024-07-11 03:16:25,15.08838097,0.0001305,53.2161,136.9755,93.824,266.2901,2.2057e-05,6.3e-07,0.0,0 STARLINK-4777,1 53847U 22114AF  24193.13640166  .00000063  00000-0  22057-4 0  9992,2 53847  53.2161 136.9755 0001305  93.8240 266.2901 15.08838097100868,6917.886,95.438,540.654,538.848,0.0
